FLOCK 1C-3              
1 40041U 14033AH  17329.94959127  .00000800  00000-0  91048-4 0  9992
2 40041  97.9200 242.4790 0014159 117.0747 243.1789 14.88925316186559
POLYITAN-1              
1 40042U 14033AJ  17329.83028642  .00000566  00000-0  67251-4 0  9998
2 40042  97.9148 240.6467 0015843 119.1623 241.1181 14.88231601186460
TIGRISAT                
1 40043U 14033AK  17330.21271323  .00000207  00000-0  38015-4 0  9997
2 40043  97.8338 209.5841 0061110 131.8178 228.8273 14.74061114184709
LEMUR-1                 
1 40044U 14033AL  17330.21314000  .00000221  00000-0  40331-4 0  9998
2 40044  97.8335 209.2811 0060235 133.0440 227.5835 14.73887728184698
AEROCUBE 6A             
1 40045U 14033AM  17329.87352173  .00000540  00000-0  85583-4 0  9994
2 40045  97.8478 210.8713 0058939 127.8344 232.8220 14.74987356184313
AEROCUBE 6B             
1 40046U 14033AN  17330.21268652  .00000364  00000-0  60212-4 0  9999
2 40046  97.8461 211.1144 0058284 126.2851 234.3761 14.74981931184744
UKUBE-1                 
1 40074U 14037F   17330.02772647  .00000518  00000-0  69930-4 0  9994
2 40074  98.3640  92.3932 0003356 242.1901 117.8953 14.83659383183175
BRITE-PL 2              
1 40119U 14049B   17329.88475079  .00000234  00000-0  34469-4 0  9992
2 40119  97.9300  54.8821 0016156 282.6245  77.3162 14.84218959177058
FIREBIRD 4              
1 40378U 15003C   17330.19286681  .00002690  00000-0  11490-3 0  9991
2 40378  99.1099 186.5757 0133595 184.6732 175.3260 15.16377260155550
GRIFEX                  
1 40379U 15003D   17330.18482235  .00002113  00000-0  96998-4 0  9991
2 40379  99.1134 183.6512 0139844 194.4324 165.2891 15.13700191155386
EXOCUBE                 
1 40380U 15003E   17329.87307439  .00002411  00000-0  11413-3 0  9998
2 40380  99.1184 181.6633 0143838 200.7807 158.7535 15.12039107155215
DEORBITSAIL             
1 40719U 15032E   17329.65391068  .00000628  00000-0  97934-4 0  9994
2 40719  97.9627 221.2371 0016464 348.3577  11.7250 14.76250316128146
TIANWANG 1C (TW-1C)     
1 40926U 15051B   17330.08152122  .00013046  00000-0  27040-3 0  9998
2 40926  97.2103   8.5186 0009126 306.4129 108.8909 15.45821474121905
TIANWANG 1B (TW-1B)     
1 40927U 15051C   17330.07514669  .00012739  00000-0  27465-3 0  9995
2 40927  97.2189   8.4533 0009287 319.5650  94.2566 15.44664657121833
TIANWANG 1A (TW-1A)     
1 40928U 15051D   17330.08992271  .00004588  00000-0  12677-3 0  9998
2 40928  97.2096   2.9718 0011680 344.3569  70.6366 15.37478974121563
LEMUR-2-JOEL            
1 40932U 15052C   17329.07636048  .00001071  00000-0  58000-4 0  9993
2 40932   6.0082 158.9722 0014574  13.2601 346.7998 14.77586956116848
LEMUR-2-CHRIS           
1 40933U 15052D   17325.89087647  .00709871  00000-0  90017-1 0  9999
2 40933   6.0161 180.1980 0015811 331.5760  28.3818 14.77842613116385
LEMUR-2-JEROEN          
1 40934U 15052E   17329.98283071  .00000733  00000-0  12606-4 0  9995
2 40934   6.0056 157.4843 0011988  13.0795 346.9585 14.77093007116896
LEMUR-2-PETER           
1 40935U 15052F   17330.02804845  .00000915  00000-0  38389-4 0  9999
2 40935   6.0009 158.9631 0010576  10.9570 349.0760 14.76857391116909
EXACTVIEW 9             
1 40936U 15052G   17330.01671409  .00000867  00000-0  32411-4 0  9993
2 40936   5.9996 162.2436 0010979   2.2434 357.7755 14.76325293116893
ATHENOXAT 1             
1 41168U 15077C   17329.95439815  .00003006  00000-0  13059-3 0  9996
2 41168  14.9870  67.1629 0011818  97.4933 232.6621 15.12227367107552
GALASSIA                
1 41170U 15077E   17328.51080722  .00002592  00000-0  10577-3 0  9990
2 41170  14.9888  73.2173 0013235  98.3394 261.8428 15.12651685107386
VELOX 2                 
1 41171U 15077F   17328.53082114  .00001977  00000-0  77926-4 0  9998
2 41171  14.9912  89.2027 0009082  47.6298 312.4790 15.10292599107248
AGGIESAT 4              
1 41313U 98067HP  17329.95462001  .00076675  00000-0  27328-3 0  9997
2 41313  51.6354 245.6115 0004513  98.2161 261.9356 15.88195685104498
HORYU-IV                
1 41340U 16012D   17329.88306214  .00000673  00000-0  44940-4 0  9997
2 41340  31.0039 160.4611 0014311 237.7668 122.1580 15.00812274 97328
OUFTI-1                 
1 41458U 16025C   17330.09859024  .00002578  00000-0  13827-3 0  9993
2 41458  98.1630  16.8714 0173156 108.0940 253.9259 15.03968007 86900
E-ST@R-II               
1 41459U 16025D   17330.07272110  .00003269  00000-0  17434-3 0  9993
2 41459  98.1672  16.7541 0174408 108.8127 253.2103 15.03767555 86894
AAUSAT 4                
1 41460U 16025E   17330.09441146  .00003778  00000-0  20024-3 0  9998
2 41460  98.1575  17.0055 0165829 105.9352 256.0235 15.04930162 86936
DIWATA-1                
1 41463U 98067HT  17330.15034117  .00015312  00000-0  15209-3 0  9996
2 41463  51.6410 286.0953 0002275  72.1218  20.8609 15.65972486 90149
FLOCK 2E'-1             
1 41479U 98067HZ  17329.85913735  .00057107  00000-0  29824-3 0  9996
2 41479  51.6332 266.8038 0003472  90.5602 269.5798 15.80288515 87316
FLOCK 2E'-3             
1 41480U 98067JA  17329.86715865  .00047412  00000-0  26076-3 0  9997
2 41480  51.6263 266.8523 0003250  91.5187 268.6187 15.79227841 87307
FLOCK 2E'-2             
1 41481U 98067JB  17330.21015276  .01304444  11180-2  13318-2 0  9997
2 41481  51.6244 258.4548 0007724 161.9304 198.1986 16.10336201 87439
FLOCK 2E-1              
1 41483U 98067JD  17329.87303814  .00037034  00000-0  23520-3 0  9998
2 41483  51.6353 270.0087 0002303  75.3436 284.7819 15.76108844 87126
FLOCK 2E-2              
1 41484U 98067JE  17329.85816460  .00144711  00000-0  64201-3 0  9995
2 41484  51.6294 265.3835 0003087 108.7611 251.3727 15.83423970 87187
FLOCK 2E-3              
1 41486U 98067JG  17329.88249946  .00037020  00000-0  21670-3 0  9996
2 41486  51.6312 270.7867 0002761  81.8173 278.3141 15.77954934 87133
FLOCK 2E-4              
1 41487U 98067JH  17329.85294199  .00040947  00000-0  25680-3 0  9991
2 41487  51.6307 269.8305 0002276  64.0473 296.0761 15.76347220 87140
FLOCK 2E-6              
1 41563U 98067JM  17329.88891069  .00122208  00000-0  63484-3 0  9993
2 41563  51.6320 273.0706 0005353 117.5401 242.6145 15.80088319 85176
FLOCK 2E-5              
1 41564U 98067JN  17329.87842928  .00027602  00000-0  19931-3 0  9993
2 41564  51.6325 274.5279 0003359  89.0617 271.0766 15.73290433 85145
FLOCK 2E-7              
1 41565U 98067JP  17329.86920462  .00051950  00000-0  27288-3 0  9990
2 41565  51.6276 265.3362 0005056  64.4724 295.6800 15.80192344 85167
FLOCK 2E'-5             
1 41567U 98067JR  17329.91092152  .00028301  00000-0  21539-3 0  9991
2 41567  51.6343 277.0387 0005270  51.0773 309.0694 15.72023520 84985
FLOCK 2E'-6             
1 41568U 98067JS  17329.89421759  .00042316  00000-0  27174-3 0  9991
2 41568  51.6304 271.5789 0005137  62.3716 297.7805 15.75779194 85089
FLOCK 2E'-8             
1 41569U 98067JT  17330.04912599  .00055861  00000-0  28295-3 0  9992
2 41569  51.6315 263.5543 0003299  73.0191 287.1173 15.80965652 85087
FLOCK 2E-9              
1 41571U 98067JV  17330.08193648  .00282046  00000-0  91462-3 0  9998
2 41571  51.6279 260.7662 0003820 132.6610 227.4718 15.89477622 85107
FLOCK 2E-10             
1 41572U 98067JW  17329.82424989  .00061436  00000-0  33621-3 0  9995
2 41572  51.6344 267.3630 0004868  62.2836 297.8659 15.79221835 84993
FLOCK 2E-12             
1 41573U 98067JX  17329.88109468  .00060528  00000-0  29880-3 0  9997
2 41573  51.6315 264.6874 0005323  70.1743 289.9832 15.81479826 85033
FLOCK 2E-11             
1 41574U 98067JY  17329.30426895  .00062901  00000-0  31479-3 0  9995
2 41574  51.6256 266.7383 0006176  73.4722 286.6958 15.81160968 84953
FLOCK 2E'-9             
1 41575U 98067JZ  17330.19809626  .00076953  00000-0  32324-3 0  9994
2 41575  51.6285 259.1710 0006673  88.7356 271.4412 15.84806199 85123
FLOCK 2E'-10            
1 41576U 98067KA  17329.88243521  .00070363  00000-0  32150-3 0  9991
2 41576  51.6314 263.9750 0006566  82.6658 277.5091 15.83068656 84938
FLOCK 2E'-11            
1 41577U 98067KB  17329.92553224  .00056005  00000-0  29666-3 0  9996
2 41577  51.6338 265.8094 0005366  61.2167 298.9373 15.79974677 84734
FLOCK 2E'-12            
1 41578U 98067KC  17329.86161802  .00083015  00000-0  33946-3 0  9994
2 41578  51.6256 262.1927 0006553  78.1934 281.9804 15.85337395 84779
FLOCK 2P-6              
1 41606U 16040H   17330.15297874  .00004846  00000-0  20595-3 0  9991
2 41606  97.4409  31.5277 0009617 219.7833 140.2700 15.23484150 79354
FLOCK 2P-11             
1 41608U 16040K   17329.89484484  .00003402  00000-0  14578-3 0  9998
2 41608  97.4404  31.2345 0009624 220.8757 139.1759 15.23417823 79253
FLOCK 2P-2              
1 41609U 16040L   17330.17429507  .00005534  00000-0  23446-3 0  9999
2 41609  97.4408  31.5066 0009502 219.3692 140.6855 15.23524984 79270
FLOCK 2P-9              
1 41610U 16040M   17329.85754871  .00005590  00000-0  23696-3 0  9998
2 41610  97.4406  31.1464 0009778 220.9024 139.1480 15.23497596 79107
FLOCK 2P-4              
1 41611U 16040N   17329.88520932  .00002063  00000-0  89542-4 0  9996
2 41611  97.4433  31.4312 0009648 231.1441 128.8935 15.23435011 79278
FLOCK 2P-10             
1 41612U 16040P   17329.66590926  .00005639  00000-0  23910-3 0  9991
2 41612  97.4438  31.2978 0009465 231.7840 128.2546 15.23488364 79244
FLOCK 2P-8              
1 41613U 16040Q   17329.81389091  .00001796  00000-0  78294-4 0  9994
2 41613  97.4434  31.3793 0009642 230.3325 129.7062 15.23460807 79260
FLOCK 2P-12             
1 41614U 16040R   17329.90665574  .00005821  00000-0  24669-3 0  9997
2 41614  97.4443  31.6282 0009309 230.1740 129.8678 15.23492862 79288
FLOCK 2P-7              
1 41615U 16040S   17329.87292381  .00003576  00000-0  15273-3 0  9992
2 41615  97.4430  31.4348 0009631 230.9717 129.0664 15.23491754 79271
